OBJECT_NAME,OBJECT_ID,EPOCH,MEAN_MOTION,ECCENTRICITY,INCLINATION,RA_OF_ASC_NODE,ARG_OF_PERICENTER,MEAN_ANOMALY,EPHEMERIS_TYPE,CLASSIFICATION_TYPE,NORAD_CAT_ID,ELEMENT_SET_NO,REV_AT_EPOCH,BSTAR,MEAN_MOTION_DOT,MEAN_MOTION_DDOT
ONEWEB-0053,2020-008AC,2026-07-10T11:44:10.310208,13.10368543,.00015858,87.8809,31.6395,71.1025,289.0274,0,U,45157,999,31096,-.18513213E-3,-.52E-6,0
ONEWEB-0054,2020-008AD,2026-07-10T07:05:39.210144,13.10377982,.00018903,87.8823,31.6633,85.9161,274.2183,0,U,45158,999,31105,.25178154E-4,.21E-6,0
ONEWEB-0056,2020-008AE,2026-07-10T11:53:44.153088,13.10369542,.00020683,87.8822,31.6172,84.7585,275.3778,0,U,45159,999,31123,-.98082713E-3,-.33E-5,0
ONEWEB-0057,2020-008AF,2026-07-10T12:18:34.215264,13.10373675,.00016592,87.8820,31.6255,69.7985,290.3320,0,U,45160,999,31140,-.15921783E-2,-.543E-5,0
ONEWEB-0058,2020-008AG,2026-07-10T11:59:33.180576,13.10372117,.00017636,87.8814,31.6325,94.4548,265.6781,0,U,45161,999,31147,-.15329225E-2,-.522E-5,0
ONEWEB-0059,2020-008AH,2026-07-09T12:04:44.994720,13.10368612,.00015463,87.8816,31.8305,83.1818,276.9485,0,U,45162,999,31124,-.1484511E-2,-.505E-5,0
ONEWEB-0062,2020-008AJ,2026-07-10T06:58:05.602368,13.10376616,.00019734,87.8821,31.6625,95.2311,264.9042,0,U,45163,999,31121,-.90552698E-3,-.303E-5,0
ONEWEB-0065,2020-008AK,2026-07-10T00:27:09.861696,13.10372887,.00019084,87.8814,31.7244,77.3085,282.8256,0,U,45164,999,31087,.16299832E-2,.582E-5,0
ONEWEB-0066,2020-020A,2026-07-10T11:50:39.314112,13.11421991,.00017009,87.8876,16.4293,92.2674,267.8649,0,U,45424,999,30573,.11250245E-2,.411E-5,0
ONEWEB-0067,2020-020B,2026-07-09T18:26:19.310784,13.11424505,.00017808,87.8895,16.4996,85.0758,275.0574,0,U,45425,999,30569,-.10980518E-2,-.377E-5,0
ONEWEB-0080,2020-020C,2026-07-10T10:54:42.003648,13.11414459,.00020044,87.8890,16.4363,98.0711,262.0645,0,U,45426,999,30575,-.10468855E-2,-.358E-5,0
ONEWEB-0090,2020-020D,2026-07-10T11:36:12.337632,13.11418550,.00019129,87.8887,16.4344,91.2381,268.8966,0,U,45427,999,30572,.50060682E-4,.3E-6,0
ONEWEB-0061,2020-020E,2026-07-09T23:33:07.512480,13.11414616,.00018012,87.8883,16.5191,90.1002,270.0332,0,U,45428,999,30561,.68011779E-3,.254E-5,0
ONEWEB-0081,2020-020F,2026-07-10T11:55:32.827872,13.11417284,.00016521,87.8879,16.4257,87.1231,273.0086,0,U,45429,999,30579,.13164202E-2,.479E-5,0
ONEWEB-0069,2020-020G,2026-07-10T11:58:11.608608,13.11419689,.0001621,87.8885,16.4285,90.5888,269.5426,0,U,45430,999,30572,.14322693E-2,.52E-5,0
ONEWEB-0031,2020-020H,2026-07-10T10:59:24.069408,13.11416118,.00019054,87.8874,16.4397,94.2991,265.8355,0,U,45431,999,30570,-.11692742E-2,-.402E-5,0
ONEWEB-0027,2020-020J,2026-07-10T10:07:03.068256,13.17665526,.00023952,87.9124,1.2433,95.9322,264.2082,0,U,45432,999,30941,-.67724919E-2,-.2617E-4,0
ONEWEB-0064,2020-020K,2026-07-09T18:28:07.099968,13.11415589,.00020385,87.8884,16.5703,92.2530,267.8831,0,U,45433,999,30564,-.1026037E-2,-.351E-5,0
ONEWEB-0018,2020-020L,2026-07-10T11:43:07.559616,13.11418385,.00015578,87.8881,16.4264,99.0022,261.1282,0,U,45434,999,30568,.50825245E-3,.193E-5,0
ONEWEB-0083,2020-020M,2026-07-09T11:40:36.331104,13.11418856,.00018496,87.8888,16.6206,91.8186,268.3154,0,U,45435,999,30559,-.10819232E-3,-.26E-6,0
ONEWEB-0095,2020-020N,2026-07-10T11:16:39.513792,13.11417112,.00024364,87.8886,16.4335,79.3710,280.7692,0,U,45436,999,30572,-.14557171E-2,-.503E-5,0
ONEWEB-0092,2020-020P,2026-07-10T06:31:01.489728,13.11414455,.00016815,87.8885,16.4643,94.2237,265.9083,0,U,45437,999,30581,.14545895E-2,.528E-5,0
ONEWEB-0085,2020-020Q,2026-07-09T11:40:12.438048,13.11418366,.0001849,87.8880,16.6262,89.6746,270.4594,0,U,45438,999,30559,-.1397658E-3,-.37E-6,0
ONEWEB-0096,2020-020R,2026-07-09T11:42:50.472288,13.11418171,.0001971,87.8888,16.6228,88.3212,271.8141,0,U,45439,999,30558,.74646732E-4,.39E-6,0
ONEWEB-0037,2020-020S,2026-07-10T12:08:56.975136,13.11421662,.00019322,87.8898,16.3930,89.0772,271.0578,0,U,45440,999,30575,-.2403033E-2,-.839E-5,0
ONEWEB-0042,2020-020T,2026-07-10T11:16:16.170240,13.11417430,.00017572,87.8884,16.4240,87.1831,272.9498,0,U,45441,999,30571,-.12596541E-2,-.434E-5,0
ONEWEB-0098,2020-020U,2026-07-10T11:10:20.722368,13.11415072,.00018395,87.8885,16.4333,92.1535,267.9803,0,U,45442,999,30569,-.12709231E-2,-.438E-5,0
ONEWEB-0055,2020-020V,2026-07-10T10:39:39.611808,13.11413816,.00019736,87.8887,16.4366,93.9408,266.1946,0,U,45443,999,30566,.62569717E-3,.234E-5,0
ONEWEB-0093,2020-020W,2026-07-09T12:19:12.112032,13.10891081,.0001554,87.8881,16.6175,84.1414,275.9891,0,U,45444,999,30560,.1599688E-2,.575E-5,0
ONEWEB-0029,2020-020X,2026-07-09T18:21:00.411840,13.11414496,.00015925,87.8879,16.5728,88.8258,271.3053,0,U,45445,999,30561,-.87318682E-3,-.297E-5,0
