ONEWEB-0053             
1 45157U 20008AC  26191.48900822 -.00000052  00000+0 -18513-3 0  9993
2 45157  87.8809  31.6395 0001585  71.1025 289.0274 13.10368543310961
ONEWEB-0054             
1 45158U 20008AD  26191.29559271  .00000021  00000+0  25178-4 0  9991
2 45158  87.8823  31.6633 0001890  85.9161 274.2183 13.10377982311059
ONEWEB-0056             
1 45159U 20008AE  26191.49564992 -.00000330  00000+0 -98083-3 0  9999
2 45159  87.8822  31.6172 0002068  84.7585 275.3778 13.10369542311237
ONEWEB-0057             
1 45160U 20008AF  26191.51289601 -.00000543  00000+0 -15922-2 0  9991
2 45160  87.8820  31.6255 0001659  69.7985 290.3320 13.10373675311402
ONEWEB-0058             
1 45161U 20008AG  26191.49968959 -.00000522  00000+0 -15329-2 0  9997
2 45161  87.8814  31.6325 0001763  94.4548 265.6781 13.10372117311473
ONEWEB-0059             
1 45162U 20008AH  26190.50329855 -.00000505  00000+0 -14845-2 0  9998
2 45162  87.8816  31.8305 0001546  83.1818 276.9485 13.10368612311246
ONEWEB-0062             
1 45163U 20008AJ  26191.29034262 -.00000303  00000+0 -90553-3 0  9998
2 45163  87.8821  31.6625 0001973  95.2311 264.9042 13.10376616311218
ONEWEB-0065             
1 45164U 20008AK  26191.01886414  .00000582  00000+0  16300-2 0  9997
2 45164  87.8814  31.7244 0001908  77.3085 282.8256 13.10372887310879
ONEWEB-0066             
1 45424U 20020A   26191.49351058  .00000411  00000+0  11250-2 0  9993
2 45424  87.8876  16.4293 0001700  92.2674 267.8649 13.11421991305730
ONEWEB-0067             
1 45425U 20020B   26190.76827906 -.00000377  00000+0 -10981-2 0  9996
2 45425  87.8895  16.4996 0001780  85.0758 275.0574 13.11424505305690
ONEWEB-0080             
1 45426U 20020C   26191.45465282 -.00000358  00000+0 -10469-2 0  9999
2 45426  87.8890  16.4363 0002004  98.0711 262.0645 13.11414459305756
ONEWEB-0090             
1 45427U 20020D   26191.48347613  .00000030  00000+0  50061-4 0  9999
2 45427  87.8887  16.4344 0001912  91.2381 268.8966 13.11418550305720
ONEWEB-0061             
1 45428U 20020E   26190.98133695  .00000254  00000+0  68012-3 0  9999
2 45428  87.8883  16.5191 0001801  90.1002 270.0332 13.11414616305612
ONEWEB-0081             
1 45429U 20020F   26191.49690773  .00000479  00000+0  13164-2 0  9998
2 45429  87.8879  16.4257 0001652  87.1231 273.0086 13.11417284305796
ONEWEB-0069             
1 45430U 20020G   26191.49874547  .00000520  00000+0  14323-2 0  9998
2 45430  87.8885  16.4285 0001621  90.5888 269.5426 13.11419689305720
ONEWEB-0031             
1 45431U 20020H   26191.45791747 -.00000402  00000+0 -11693-2 0  9993
2 45431  87.8874  16.4397 0001905  94.2991 265.8355 13.11416118305706
ONEWEB-0027             
1 45432U 20020J   26191.42156329 -.00002617  00000+0 -67725-2 0  9999
2 45432  87.9124   1.2433 0002395  95.9322 264.2082 13.17665526309416
ONEWEB-0064             
1 45433U 20020K   26190.76952662 -.00000351  00000+0 -10260-2 0  9995
2 45433  87.8884  16.5703 0002038  92.2530 267.8831 13.11415589305641
ONEWEB-0018             
1 45434U 20020L   26191.48828194  .00000193  00000+0  50825-3 0  9992
2 45434  87.8881  16.4264 0001557  99.0022 261.1282 13.11418385305684
ONEWEB-0083             
1 45435U 20020M   26190.48653161 -.00000026  00000+0 -10819-3 0  9998
2 45435  87.8888  16.6206 0001849  91.8186 268.3154 13.11418856305595
ONEWEB-0095             
1 45436U 20020N   26191.46990178 -.00000503  00000+0 -14557-2 0  9992
2 45436  87.8886  16.4335 0002436  79.3710 280.7692 13.11417112305726
ONEWEB-0092             
1 45437U 20020P   26191.27154502  .00000528  00000+0  14546-2 0  9998
2 45437  87.8885  16.4643 0001681  94.2237 265.9083 13.11414455305815
ONEWEB-0085             
1 45438U 20020Q   26190.48625507 -.00000037  00000+0 -13977-3 0  9994
2 45438  87.8880  16.6262 0001849  89.6746 270.4594 13.11418366305597
ONEWEB-0096             
1 45439U 20020R   26190.48808417  .00000039  00000+0  74647-4 0  9990
2 45439  87.8888  16.6228 0001971  88.3212 271.8141 13.11418171305584
ONEWEB-0037             
1 45440U 20020S   26191.50621499 -.00000839  00000+0 -24030-2 0  9998
2 45440  87.8898  16.3930 0001932  89.0772 271.0578 13.11421662305754
ONEWEB-0042             
1 45441U 20020T   26191.46963160 -.00000434  00000+0 -12597-2 0  9994
2 45441  87.8884  16.4240 0001757  87.1831 272.9498 13.11417430305710
ONEWEB-0098             
1 45442U 20020U   26191.46551762 -.00000438  00000+0 -12709-2 0  9995
2 45442  87.8885  16.4333 0001839  92.1535 267.9803 13.11415072305694
ONEWEB-0055             
1 45443U 20020V   26191.44420847  .00000234  00000+0  62570-3 0  9997
2 45443  87.8887  16.4366 0001973  93.9408 266.1946 13.11413816305660
ONEWEB-0093             
1 45444U 20020W   26190.51333463  .00000575  00000+0  15997-2 0  9990
2 45444  87.8881  16.6175 0001554  84.1414 275.9891 13.10891081305603
ONEWEB-0029             
1 45445U 20020X   26190.76458810 -.00000297  00000+0 -87319-3 0  9993
2 45445  87.8879  16.5728 0001592  88.8258 271.3053 13.11414496305616
